{"type": "FeatureCollection", "features": [ {"type": "Feature", "properties": {"norad_id": 43010, "name": "FENGYUN 3D", "group": "weather", "lat": -71.4980916206742, "lon": -4.848531974682405, "alt_km": 834.5678249655275, "timestamp": "2025-12-26T09:30:53.270191+00:00", "meta": {"OBJECT_NAME": "FENGYUN 3D", "OBJECT_ID": "2017-072A", "EPOCH": "2025-12-26T04:47:14.989920", "MEAN_MOTION": 14.19687619, "ECCENTRICITY": 0.000159, "INCLINATION": 98.9915, "RA_OF_ASC_NODE": 326.7122, "ARG_OF_PERICENTER": 145.0249, "MEAN_ANOMALY": 215.1031, "EPHEMERIS_TYPE": 0, "CLASSIFICATION_TYPE": "U", "NORAD_CAT_ID": 43010, "ELEMENT_SET_NO": 999, "REV_AT_EPOCH": 42044, "BSTAR": 0.00010603, "MEAN_MOTION_DOT": 1.78e-06, "MEAN_MOTION_DDOT": 0}, "tle": {"line1": "1 43010U 17072A   25360.19947905  .00000178  00000+0  10603-3 0  9993", "line2": "2 43010  98.9915 326.7122 0001590 145.0249 215.1031 14.19687619420443"}}, "geometry": {"type": "Point", "coordinates": [-4.848531974682405, -71.4980916206742]}}, {"type": "Feature", "properties": {"norad_id": 43013, "name": "NOAA 20 (JPSS-1)", "group": "weather", "lat": 68.69839146697217, "lon": -86.75369337858795, "alt_km": 818.752379527562, "timestamp": "2025-12-26T09:30:53.270202+00:00", "meta": {"OBJECT_NAME": "NOAA 20 (JPSS-1)", "OBJECT_ID": "2017-073A", "EPOCH": "2025-12-26T02:25:02.482752", "MEAN_MOTION": 14.19529242, "ECCENTRICITY": 0.0002065, "INCLINATION": 98.7616, "RA_OF_ASC_NODE": 296.2523, "ARG_OF_PERICENTER": 68.2187, "MEAN_ANOMALY": 291.9208, "EPHEMERIS_TYPE": 0, "CLASSIFICATION_TYPE": "U", "NORAD_CAT_ID": 43013, "ELEMENT_SET_NO": 999, "REV_AT_EPOCH": 41991, "BSTAR": 6.6277e-05, "MEAN_MOTION_DOT": 9.6e-07, "MEAN_MOTION_DDOT": 0}, "tle": {"line1": "1 43013U 17073A   25360.10072318  .00000096  00000+0  66277-4 0  9993", "line2": "2 43013  98.7616 296.2523 0002065  68.2187 291.9208 14.19529242419918"}}, "geometry": {"type": "Point", "coordinates": [-86.75369337858795, 68.69839146697217]}}, {"type": "Feature", "properties": {"norad_id": 43226, "name": "GOES 17", "group": "weather", "lat": 0.4349383022615032, "lon": 148.33105498283962, "alt_km": 35794.99674720879, "timestamp": "2025-12-26T09:30:53.270215+00:00", "meta": {"OBJECT_NAME": "GOES 17", "OBJECT_ID": "2018-022A", "EPOCH": "2025-12-26T04:59:55.516416", "MEAN_MOTION": 1.00271633, "ECCENTRICITY": 0.0003164, "INCLINATION": 0.4904, "RA_OF_ASC_NODE": 89.0248, "ARG_OF_PERICENTER": 191.0823, "MEAN_ANOMALY": 160.3327, "EPHEMERIS_TYPE": 0, "CLASSIFICATION_TYPE": "U", "NORAD_CAT_ID": 43226, "ELEMENT_SET_NO": 999, "REV_AT_EPOCH": 2868, "BSTAR": 0, "MEAN_MOTION_DOT": -1.61e-06, "MEAN_MOTION_DDOT": 0}, "tle": {"line1": "1 43226U 18022A   25360.20828144 -.00000161  00000+0  00000+0 0  9992", "line2": "2 43226   0.4904  89.0248 0003164 191.0823 160.3327  1.00271633 28684"}}, "geometry": {"type": "Point", "coordinates": [148.33105498283962, 0.4349383022615032]}}, {"type": "Feature", "properties": {"norad_id": 43491, "name": "FENGYUN 2H", "group": "weather", "lat": -2.158942884850307, "lon": -42.8111191849715, "alt_km": 35783.10681679797, "timestamp": "2025-12-26T09:30:53.270227+00:00", "meta": {"OBJECT_NAME": "FENGYUN 2H", "OBJECT_ID": "2018-050A", "EPOCH": "2025-12-26T03:07:59.935584", "MEAN_MOTION": 1.00270255, "ECCENTRICITY": 0.0002434, "INCLINATION": 2.5832, "RA_OF_ASC_NODE": 81.1875, "ARG_OF_PERICENTER": 166.8758, "MEAN_ANOMALY": 333.148, "EPHEMERIS_TYPE": 0, "CLASSIFICATION_TYPE": "U", "NORAD_CAT_ID": 43491, "ELEMENT_SET_NO": 999, "REV_AT_EPOCH": 2770, "BSTAR": 0, "MEAN_MOTION_DOT": -1.08e-06, "MEAN_MOTION_DDOT": 0}, "tle": {"line1": "1 43491U 18050A   25360.13055481 -.00000108  00000+0  00000+0 0  9996", "line2": "2 43491   2.5832  81.1875 0002434 166.8758 333.1480  1.00270255 27707"}}, "geometry": {"type": "Point", "coordinates": [-42.8111191849715, -2.158942884850307]}}, {"type": "Feature", "properties": {"norad_id": 43689, "name": "METOP-C", "group": "weather", "lat": -51.553783344158255, "lon": 69.06398673535632, "alt_km": 827.0509520526648, "timestamp": "2025-12-26T09:30:53.270238+00:00", "meta": {"OBJECT_NAME": "METOP-C", "OBJECT_ID": "2018-087A", "EPOCH": "2025-12-26T03:00:12.833856", "MEAN_MOTION": 14.21489355, "ECCENTRICITY": 5.77e-05, "INCLINATION": 98.6911, "RA_OF_ASC_NODE": 57.6884, "ARG_OF_PERICENTER": 13.664, "MEAN_ANOMALY": 346.4552, "EPHEMERIS_TYPE": 0, "CLASSIFICATION_TYPE": "U", "NORAD_CAT_ID": 43689, "ELEMENT_SET_NO": 999, "REV_AT_EPOCH": 37024, "BSTAR": 7.8523e-05, "MEAN_MOTION_DOT": 1.28e-06, "MEAN_MOTION_DDOT": 0}, "tle": {"line1": "1 43689U 18087A   25360.12514854  .00000128  00000+0  78523-4 0  9999", "line2": "2 43689  98.6911  57.6884 0000577  13.6640 346.4552 14.21489355370240"}}, "geometry": {"type": "Point", "coordinates": [69.06398673535632, -51.553783344158255]}}, {"type": "Feature", "properties": {"norad_id": 43823, "name": "GEO-KOMPSAT-2A", "group": "weather", "lat": -0.020526057459900483, "lon": 6.086264557292546, "alt_km": 35786.70720048945, "timestamp": "2025-12-26T09:30:53.270258+00:00", "meta": {"OBJECT_NAME": "GEO-KOMPSAT-2A", "OBJECT_ID": "2018-100A", "EPOCH": "2025-12-25T12:13:38.614080", "MEAN_MOTION": 1.00268534, "ECCENTRICITY": 2.51e-05, "INCLINATION": 0.0434, "RA_OF_ASC_NODE": 172.7377, "ARG_OF_PERICENTER": 259.9479, "MEAN_ANOMALY": 333.2359, "EPHEMERIS_TYPE": 0, "CLASSIFICATION_TYPE": "U", "NORAD_CAT_ID": 43823, "ELEMENT_SET_NO": 999, "REV_AT_EPOCH": 2588, "BSTAR": 0, "MEAN_MOTION_DOT": -3.22e-06, "MEAN_MOTION_DDOT": 0}, "tle": {"line1": "1 43823U 18100A   25359.50947470 -.00000322  00000+0  00000+0 0  9996", "line2": "2 43823   0.0434 172.7377 0000251 259.9479 333.2359  1.00268534 25880"}}, "geometry": {"type": "Point", "coordinates": [6.086264557292546, -0.020526057459900483]}}, {"type": "Feature", "properties": {"norad_id": 44387, "name": "METEOR-M2 2", "group": "weather", "lat": 19.781750208649264, "lon": 163.52358446145186, "alt_km": 809.8488977872066, "timestamp": "2025-12-26T09:30:53.270270+00:00", "meta": {"OBJECT_NAME": "METEOR-M2 2", "OBJECT_ID": "2019-038A", "EPOCH": "2025-12-26T05:23:41.422272", "MEAN_MOTION": 14.24297591, "ECCENTRICITY": 0.0001817, "INCLINATION": 98.899, "RA_OF_ASC_NODE": 340.1194, "ARG_OF_PERICENTER": 122.9507, "MEAN_ANOMALY": 237.1847, "EPHEMERIS_TYPE": 0, "CLASSIFICATION_TYPE": "U", "NORAD_CAT_ID": 44387, "ELEMENT_SET_NO": 999, "REV_AT_EPOCH": 33667, "BSTAR": 0.00019431, "MEAN_MOTION_DOT": 4.03e-06, "MEAN_MOTION_DDOT": 0}, "tle": {"line1": "1 44387U 19038A   25360.22478498  .00000403  00000+0  19431-3 0  9994", "line2": "2 44387  98.8990 340.1194 0001817 122.9507 237.1847 14.24297591336677"}}, "geometry": {"type": "Point", "coordinates": [163.52358446145186, 19.781750208649264]}}, {"type": "Feature", "properties": {"norad_id": 47719, "name": "ARKTIKA-M 1", "group": "weather", "lat": 53.27680095567428, "lon": -140.46781524328298, "alt_km": 29306.90265960719, "timestamp": "2025-12-26T09:30:53.270283+00:00", "meta": {"OBJECT_NAME": "ARKTIKA-M 1", "OBJECT_ID": "2021-016A", "EPOCH": "2025-12-25T00:52:45.922368", "MEAN_MOTION": 2.00630507, "ECCENTRICITY": 0.7210339, "INCLINATION": 63.177, "RA_OF_ASC_NODE": 82.3163, "ARG_OF_PERICENTER": 269.1694, "MEAN_ANOMALY": 15.5374, "EPHEMERIS_TYPE": 0, "CLASSIFICATION_TYPE": "U", "NORAD_CAT_ID": 47719, "ELEMENT_SET_NO": 999, "REV_AT_EPOCH": 3529, "BSTAR": 0, "MEAN_MOTION_DOT": -4.3e-07, "MEAN_MOTION_DDOT": 0}, "tle": {"line1": "1 47719U 21016A   25359.03664262 -.00000043  00000+0  00000+0 0  9997", "line2": "2 47719  63.1770  82.3163 7210339 269.1694  15.5374  2.00630507 35296"}}, "geometry": {"type": "Point", "coordinates": [-140.46781524328298, 53.27680095567428]}}, {"type": "Feature", "properties": {"norad_id": 49008, "name": "FENGYUN 3E", "group": "weather", "lat": -78.34740523742813, "lon": 132.45639120272733, "alt_km": 832.8938396942804, "timestamp": "2025-12-26T09:30:53.270295+00:00", "meta": {"OBJECT_NAME": "FENGYUN 3E", "OBJECT_ID": "2021-062A", "EPOCH": "2025-12-26T04:54:03.112416", "MEAN_MOTION": 14.19882439, "ECCENTRICITY": 0.0001002, "INCLINATION": 98.7479, "RA_OF_ASC_NODE": 0.5656, "ARG_OF_PERICENTER": 186.6013, "MEAN_ANOMALY": 173.515, "EPHEMERIS_TYPE": 0, "CLASSIFICATION_TYPE": "U", "NORAD_CAT_ID": 49008, "ELEMENT_SET_NO": 999, "REV_AT_EPOCH": 23203, "BSTAR": 0.00017364, "MEAN_MOTION_DOT": 3.24e-06, "MEAN_MOTION_DDOT": 0}, "tle": {"line1": "1 49008U 21062A   25360.20420269  .00000324  00000+0  17364-3 0  9995", "line2": "2 49008  98.7479   0.5656 0001002 186.6013 173.5150 14.19882439232038"}}, "geometry": {"type": "Point", "coordinates": [132.45639120272733, -78.34740523742813]}}, {"type": "Feature", "properties": {"norad_id": 51850, "name": "GOES 18", "group": "weather", "lat": -0.008721687178710741, "lon": 100.85591723481778, "alt_km": 35787.78396971294, "timestamp": "2025-12-26T09:30:53.270310+00:00", "meta": {"OBJECT_NAME": "GOES 18", "OBJECT_ID": "2022-021A", "EPOCH": "2025-12-26T04:21:57.748032", "MEAN_MOTION": 1.00271511, "ECCENTRICITY": 4.55e-05, "INCLINATION": 0.0096, "RA_OF_ASC_NODE": 172.4239, "ARG_OF_PERICENTER": 139.8311, "MEAN_ANOMALY": 71.1627, "EPHEMERIS_TYPE": 0, "CLASSIFICATION_TYPE": "U", "NORAD_CAT_ID": 51850, "ELEMENT_SET_NO": 999, "REV_AT_EPOCH": 485, "BSTAR": 0, "MEAN_MOTION_DOT": 1.18e-06, "MEAN_MOTION_DDOT": 0}, "tle": {"line1": "1 51850U 22021A   25360.18191838  .00000118  00000+0  00000+0 0  9999", "line2": "2 51850   0.0096 172.4239 0000455 139.8311  71.1627  1.00271511  4853"}}, "geometry": {"type": "Point", "coordinates": [100.85591723481778, -0.008721687178710741]}}]}